{"type": "FeatureCollection", "features": [ {"type": "Feature", "properties": {"norad_id": 35207, "name": "FENGYUN 1C DEB", "group": "fengyun-1c-debris", "lat": -78.76045903041178, "lon": 134.87726943650682, "alt_km": 678.7001133671793, "timestamp": "2025-12-12T05:47:29.058898+00:00", "meta": {"OBJECT_NAME": "FENGYUN 1C DEB", "OBJECT_ID": "1999-025DPP", "EPOCH": "2025-12-11T12:01:12.884448", "MEAN_MOTION": 14.55416828, "ECCENTRICITY": 0.00549543, "INCLINATION": 98.691, "RA_OF_ASC_NODE": 83.7781, "ARG_OF_PERICENTER": 259.0775, "MEAN_ANOMALY": 100.4235, "EPHEMERIS_TYPE": 0, "CLASSIFICATION_TYPE": "U", "NORAD_CAT_ID": 35207, "ELEMENT_SET_NO": 999, "REV_AT_EPOCH": 64886, "BSTAR": 0.0044354826, "MEAN_MOTION_DOT": 0.00019669, "MEAN_MOTION_DDOT": 0}, "tle": {"line1": "1 35207U 99025DPP 25345.50084357  .00019669  00000+0  44355-2 0  9996", "line2": "2 35207  98.6910  83.7781 0054954 259.0775 100.4235 14.55416828648869"}}, "geometry": {"type": "Point", "coordinates": [134.87726943650682, -78.76045903041178]}}, {"type": "Feature", "properties": {"norad_id": 35208, "name": "FENGYUN 1C DEB", "group": "fengyun-1c-debris", "lat": 4.218403863084912, "lon": 4.790759466871194, "alt_km": 963.1717130471125, "timestamp": "2025-12-12T05:47:29.058910+00:00", "meta": {"OBJECT_NAME": "FENGYUN 1C DEB", "OBJECT_ID": "1999-025DPQ", "EPOCH": "2025-12-10T19:27:25.921152", "MEAN_MOTION": 13.99648448, "ECCENTRICITY": 0.01013326, "INCLINATION": 98.9026, "RA_OF_ASC_NODE": 4.0618, "ARG_OF_PERICENTER": 161.9236, "MEAN_ANOMALY": 198.5573, "EPHEMERIS_TYPE": 0, "CLASSIFICATION_TYPE": "U", "NORAD_CAT_ID": 35208, "ELEMENT_SET_NO": 999, "REV_AT_EPOCH": 90536, "BSTAR": 0.0012153331, "MEAN_MOTION_DOT": 1.815e-05, "MEAN_MOTION_DDOT": 0}, "tle": {"line1": "1 35208U 99025DPQ 25344.81071668  .00001815  00000+0  12153-2 0  9996", "line2": "2 35208  98.9026   4.0618 0101332 161.9236 198.5573 13.99648448905368"}}, "geometry": {"type": "Point", "coordinates": [4.790759466871194, 4.218403863084912]}}, {"type": "Feature", "properties": {"norad_id": 35210, "name": "FENGYUN 1C DEB", "group": "fengyun-1c-debris", "lat": -61.766821328371165, "lon": 152.6475085806089, "alt_km": 751.5019191036263, "timestamp": "2025-12-12T05:47:29.058920+00:00", "meta": {"OBJECT_NAME": "FENGYUN 1C DEB", "OBJECT_ID": "1999-025DPS", "EPOCH": "2025-12-09T12:02:12.880608", "MEAN_MOTION": 14.33563165, "ECCENTRICITY": 0.00493653, "INCLINATION": 99.0976, "RA_OF_ASC_NODE": 347.1318, "ARG_OF_PERICENTER": 248.6103, "MEAN_ANOMALY": 262.6924, "EPHEMERIS_TYPE": 0, "CLASSIFICATION_TYPE": "U", "NORAD_CAT_ID": 35210, "ELEMENT_SET_NO": 999, "REV_AT_EPOCH": 90076, "BSTAR": 0.0035139126, "MEAN_MOTION_DOT": 9.824e-05, "MEAN_MOTION_DDOT": 0}, "tle": {"line1": "1 35210U 99025DPS 25343.50153797  .00009824  00000+0  35139-2 0  9995", "line2": "2 35210  99.0976 347.1318 0049365 248.6103 262.6924 14.33563165900761"}}, "geometry": {"type": "Point", "coordinates": [152.6475085806089, -61.766821328371165]}}, {"type": "Feature", "properties": {"norad_id": 35217, "name": "FENGYUN 1C DEB", "group": "fengyun-1c-debris", "lat": -63.58673970467116, "lon": 56.22977629068795, "alt_km": 906.1303981798583, "timestamp": "2025-12-12T05:47:29.058930+00:00", "meta": {"OBJECT_NAME": "FENGYUN 1C DEB", "OBJECT_ID": "1999-025DPZ", "EPOCH": "2025-12-05T23:58:33.093696", "MEAN_MOTION": 13.57450047, "ECCENTRICITY": 0.03033796, "INCLINATION": 101.8756, "RA_OF_ASC_NODE": 253.7635, "ARG_OF_PERICENTER": 311.644, "MEAN_ANOMALY": 45.907, "EPHEMERIS_TYPE": 0, "CLASSIFICATION_TYPE": "U", "NORAD_CAT_ID": 35217, "ELEMENT_SET_NO": 999, "REV_AT_EPOCH": 61128, "BSTAR": 0.0049764515, "MEAN_MOTION_DOT": 4.747e-05, "MEAN_MOTION_DDOT": 0}, "tle": {"line1": "1 35217U 99025DPZ 25339.99899414  .00004747  00000+0  49765-2 0  9992", "line2": "2 35217 101.8756 253.7635 0303379 311.6440  45.9070 13.57450047611282"}}, "geometry": {"type": "Point", "coordinates": [56.22977629068795, -63.58673970467116]}}, {"type": "Feature", "properties": {"norad_id": 35220, "name": "FENGYUN 1C DEB", "group": "fengyun-1c-debris", "lat": -48.54100686076025, "lon": 66.6287808286325, "alt_km": 792.323839308684, "timestamp": "2025-12-12T05:47:29.058941+00:00", "meta": {"OBJECT_NAME": "FENGYUN 1C DEB", "OBJECT_ID": "1999-025DQC", "EPOCH": "2025-12-09T03:44:46.125024", "MEAN_MOTION": 14.22518775, "ECCENTRICITY": 0.00434323, "INCLINATION": 99.0273, "RA_OF_ASC_NODE": 53.1031, "ARG_OF_PERICENTER": 317.8282, "MEAN_ANOMALY": 41.9557, "EPHEMERIS_TYPE": 0, "CLASSIFICATION_TYPE": "U", "NORAD_CAT_ID": 35220, "ELEMENT_SET_NO": 999, "REV_AT_EPOCH": 63132, "BSTAR": 0.0018808139, "MEAN_MOTION_DOT": 4.193e-05, "MEAN_MOTION_DDOT": 0}, "tle": {"line1": "1 35220U 99025DQC 25343.15608941  .00004193  00000+0  18808-2 0  9991", "line2": "2 35220  99.0273  53.1031 0043432 317.8282  41.9557 14.22518775631322"}}, "geometry": {"type": "Point", "coordinates": [66.6287808286325, -48.54100686076025]}}, {"type": "Feature", "properties": {"norad_id": 35223, "name": "FENGYUN 1C DEB", "group": "fengyun-1c-debris", "lat": 40.73510472022045, "lon": 156.48206771344914, "alt_km": 686.3986402082446, "timestamp": "2025-12-12T05:47:29.058951+00:00", "meta": {"OBJECT_NAME": "FENGYUN 1C DEB", "OBJECT_ID": "1999-025DQF", "EPOCH": "2025-12-11T09:48:54.309024", "MEAN_MOTION": 14.88938109, "ECCENTRICITY": 0.01286053, "INCLINATION": 98.9711, "RA_OF_ASC_NODE": 327.7205, "ARG_OF_PERICENTER": 330.8089, "MEAN_ANOMALY": 28.5978, "EPHEMERIS_TYPE": 0, "CLASSIFICATION_TYPE": "U", "NORAD_CAT_ID": 35223, "ELEMENT_SET_NO": 999, "REV_AT_EPOCH": 93862, "BSTAR": 0.0016128776, "MEAN_MOTION_DOT": 0.00017646, "MEAN_MOTION_DDOT": 0}, "tle": {"line1": "1 35223U 99025DQF 25345.40896191  .00017646  00000+0  16129-2 0  9991", "line2": "2 35223  98.9711 327.7205 0128605 330.8089  28.5978 14.88938109938629"}}, "geometry": {"type": "Point", "coordinates": [156.48206771344914, 40.73510472022045]}}, {"type": "Feature", "properties": {"norad_id": 35229, "name": "FENGYUN 1C DEB", "group": "fengyun-1c-debris", "lat": -57.450009225671764, "lon": 78.70447556178962, "alt_km": 695.6274970156546, "timestamp": "2025-12-12T05:47:29.058961+00:00", "meta": {"OBJECT_NAME": "FENGYUN 1C DEB", "OBJECT_ID": "1999-025DQM", "EPOCH": "2025-12-08T23:08:00.019104", "MEAN_MOTION": 14.60344709, "ECCENTRICITY": 0.0047489, "INCLINATION": 98.4583, "RA_OF_ASC_NODE": 61.8783, "ARG_OF_PERICENTER": 226.2462, "MEAN_ANOMALY": 133.4802, "EPHEMERIS_TYPE": 0, "CLASSIFICATION_TYPE": "U", "NORAD_CAT_ID": 35229, "ELEMENT_SET_NO": 999, "REV_AT_EPOCH": 64451, "BSTAR": 0.006925, "MEAN_MOTION_DOT": 0.00034127, "MEAN_MOTION_DDOT": 0}, "tle": {"line1": "1 35229U 99025DQM 25342.96388911  .00034127  00000+0  69250-2 0  9997", "line2": "2 35229  98.4583  61.8783 0047489 226.2462 133.4802 14.60344709644518"}}, "geometry": {"type": "Point", "coordinates": [78.70447556178962, -57.450009225671764]}}, {"type": "Feature", "properties": {"norad_id": 35231, "name": "FENGYUN 1C DEB", "group": "fengyun-1c-debris", "lat": -8.37901465356976, "lon": 30.712476721372465, "alt_km": 850.0450377135303, "timestamp": "2025-12-12T05:47:29.058971+00:00", "meta": {"OBJECT_NAME": "FENGYUN 1C DEB", "OBJECT_ID": "1999-025DQP", "EPOCH": "2025-12-11T09:27:35.374752", "MEAN_MOTION": 14.14528162, "ECCENTRICITY": 0.00380389, "INCLINATION": 98.7208, "RA_OF_ASC_NODE": 28.5898, "ARG_OF_PERICENTER": 88.8561, "MEAN_ANOMALY": 271.697, "EPHEMERIS_TYPE": 0, "CLASSIFICATION_TYPE": "U", "NORAD_CAT_ID": 35231, "ELEMENT_SET_NO": 999, "REV_AT_EPOCH": 91483, "BSTAR": 3.8183278e-05, "MEAN_MOTION_DOT": 3.1e-07, "MEAN_MOTION_DDOT": 0}, "tle": {"line1": "1 35231U 99025DQP 25345.39415943  .00000031  00000+0  38183-4 0  9996", "line2": "2 35231  98.7208  28.5898 0038038  88.8561 271.6970 14.14528162914839"}}, "geometry": {"type": "Point", "coordinates": [30.712476721372465, -8.37901465356976]}}, {"type": "Feature", "properties": {"norad_id": 35233, "name": "FENGYUN 1C DEB", "group": "fengyun-1c-debris", "lat": 18.76153085252176, "lon": 82.3499429023445, "alt_km": 765.6096553245197, "timestamp": "2025-12-12T05:47:29.058982+00:00", "meta": {"OBJECT_NAME": "FENGYUN 1C DEB", "OBJECT_ID": "1999-025DQR", "EPOCH": "2025-12-10T17:47:35.210400", "MEAN_MOTION": 14.41825233, "ECCENTRICITY": 0.00413015, "INCLINATION": 98.7698, "RA_OF_ASC_NODE": 83.8157, "ARG_OF_PERICENTER": 267.1274, "MEAN_ANOMALY": 250.4527, "EPHEMERIS_TYPE": 0, "CLASSIFICATION_TYPE": "U", "NORAD_CAT_ID": 35233, "ELEMENT_SET_NO": 999, "REV_AT_EPOCH": 91147, "BSTAR": 0.0029492256, "MEAN_MOTION_DOT": 9.705e-05, "MEAN_MOTION_DDOT": 0}, "tle": {"line1": "1 35233U 99025DQR 25344.74137975  .00009705  00000+0  29492-2 0  9990", "line2": "2 35233  98.7698  83.8157 0041301 267.1274 250.4527 14.41825233911475"}}, "geometry": {"type": "Point", "coordinates": [82.3499429023445, 18.76153085252176]}}, {"type": "Feature", "properties": {"norad_id": 35234, "name": "FENGYUN 1C DEB", "group": "fengyun-1c-debris", "lat": 77.26176467687655, "lon": -126.94485411522527, "alt_km": 735.6648534905016, "timestamp": "2025-12-12T05:47:29.058992+00:00", "meta": {"OBJECT_NAME": "FENGYUN 1C DEB", "OBJECT_ID": "1999-025DQS", "EPOCH": "2025-12-09T08:30:33.361920", "MEAN_MOTION": 14.65521063, "ECCENTRICITY": 0.00996776, "INCLINATION": 98.0687, "RA_OF_ASC_NODE": 11.3531, "ARG_OF_PERICENTER": 273.2554, "MEAN_ANOMALY": 85.725, "EPHEMERIS_TYPE": 0, "CLASSIFICATION_TYPE": "U", "NORAD_CAT_ID": 35234, "ELEMENT_SET_NO": 999, "REV_AT_EPOCH": 94306, "BSTAR": 0.00084730707, "MEAN_MOTION_DOT": 4.891e-05, "MEAN_MOTION_DDOT": 0}, "tle": {"line1": "1 35234U 99025DQS 25343.35455280  .00004891  00000+0  84731-3 0  9998", "line2": "2 35234  98.0687  11.3531 0099677 273.2554  85.7250 14.65521063943069"}}, "geometry": {"type": "Point", "coordinates": [-126.94485411522527, 77.26176467687655]}}]}